CCSDS_OMM_VERS = 2.0
CREATION_DATE  = 
ORIGINATOR     = 

OBJECT_NAME    = STARLINK-36623
OBJECT_ID      = 2026-020AD
CENTER_NAME    = EARTH
REF_FRAME      = TEME
TIME_SYSTEM    = UTC
MEAN_ELEMENT_THEORY = SGP/SGP4

EPOCH          = 2026-01-30T08:15:55.399680
MEAN_MOTION    = 16.02007763
ECCENTRICITY   = .00069
INCLINATION    = 43.0100
RA_OF_ASC_NODE = 17.8878
ARG_OF_PERICENTER = 318.5000
MEAN_ANOMALY   = 14.7500

EPHEMERIS_TYPE = 0
CLASSIFICATION_TYPE = U
NORAD_CAT_ID   = 67644
ELEMENT_SET_NO = 999
REV_AT_EPOCH   = 1
BSTAR          = 0
MEAN_MOTION_DOT = -.2705E-4
MEAN_MOTION_DDOT = .8550678E-5

CCSDS_OMM_VERS = 2.0
CREATION_DATE  = 
ORIGINATOR     = 

OBJECT_NAME    = STARLINK-36619
OBJECT_ID      = 2026-020AE
CENTER_NAME    = EARTH
REF_FRAME      = TEME
TIME_SYSTEM    = UTC
MEAN_ELEMENT_THEORY = SGP/SGP4

EPOCH          = 2026-01-30T08:15:55.399680
MEAN_MOTION    = 16.02007763
ECCENTRICITY   = .00069
INCLINATION    = 43.0100
RA_OF_ASC_NODE = 17.8878
ARG_OF_PERICENTER = 318.5000
MEAN_ANOMALY   = 14.7500

EPHEMERIS_TYPE = 0
CLASSIFICATION_TYPE = U
NORAD_CAT_ID   = 67645
ELEMENT_SET_NO = 999
REV_AT_EPOCH   = 1
BSTAR          = 0
MEAN_MOTION_DOT = -.2705E-4
MEAN_MOTION_DDOT = .8550678E-5

CCSDS_OMM_VERS = 2.0
CREATION_DATE  = 
ORIGINATOR     = 

OBJECT_NAME    = ALSAT-3B
OBJECT_ID      = 2026-021A
CENTER_NAME    = EARTH
REF_FRAME      = TEME
TIME_SYSTEM    = UTC
MEAN_ELEMENT_THEORY = SGP/SGP4

EPOCH          = 2026-02-05T03:18:19.337184
MEAN_MOTION    = 15.23437536
ECCENTRICITY   = .00113981
INCLINATION    = 97.4727
RA_OF_ASC_NODE = 110.6131
ARG_OF_PERICENTER = 246.8327
MEAN_ANOMALY   = 113.1710

EPHEMERIS_TYPE = 0
CLASSIFICATION_TYPE = U
NORAD_CAT_ID   = 67646
ELEMENT_SET_NO = 999
REV_AT_EPOCH   = 76
BSTAR          = .41135999E-3
MEAN_MOTION_DOT = .9748E-4
MEAN_MOTION_DDOT = 0

CCSDS_OMM_VERS = 2.0
CREATION_DATE  = 
ORIGINATOR     = 

OBJECT_NAME    = CZ-2C R/B
OBJECT_ID      = 2026-021B
CENTER_NAME    = EARTH
REF_FRAME      = TEME
TIME_SYSTEM    = UTC
MEAN_ELEMENT_THEORY = SGP/SGP4

EPOCH          = 2026-02-05T15:57:29.161440
MEAN_MOTION    = 15.23186183
ECCENTRICITY   = .01542176
INCLINATION    = 97.6568
RA_OF_ASC_NODE = 111.4877
ARG_OF_PERICENTER = 122.4218
MEAN_ANOMALY   = 239.2043

EPHEMERIS_TYPE = 0
CLASSIFICATION_TYPE = U
NORAD_CAT_ID   = 67647
ELEMENT_SET_NO = 999
REV_AT_EPOCH   = 82
BSTAR          = .62547563E-3
MEAN_MOTION_DOT = .20633E-3
MEAN_MOTION_DDOT = 0

